NORAD_CAT_ID,OBJECT_NAME,OBJECT_TYPE,EPOCH,MEAN_MOTION,ECCENTRICITY,INCLINATION,RA_OF_ASC_NODE,ARG_OF_PERICENTER,MEAN_ANOMALY,BSTAR,MEAN_MOTION_DOT,MEAN_MOTION_DDOT,TLE_LINE0,TLE_LINE1,TLE_LINE2,SEMIMAJOR_AXIS,PERIOD,APOGEE,PERIGEE,DECAYED
49168.0,STARLINK-3101,PAYLOAD,2024-02-27 02:57:17,14.98323496,0.0002854,70.0017,344.1974,263.4485,96.6349,-1.5282e-05,-2.75e-06,0.0,0 STARLINK-3101,1 49168U 21082AQ  24058.12312175 -.00000275  00000-0 -15282-4 0  9990,2 49168  70.0017 344.1974 0002854 263.4485  96.6349 14.98323496136598,6950.213,96.107,574.062,570.094,0.0
49168.0,STARLINK-3101,PAYLOAD,2024-02-27 12:34:06,14.98325289,0.0003026,70.0009,343.1868,271.291,88.7903,-8.7239e-06,-1.97e-06,0.0,0 STARLINK-3101,1 49168U 21082AQ  24058.52368183 -.00000197  00000-0 -87239-5 0  9999,2 49168  70.0009 343.1868 0003026 271.2910  88.7903 14.98325289136659,6950.207,96.107,574.176,569.969,0.0
49168.0,STARLINK-3101,PAYLOAD,2024-02-27 22:10:54,14.98327646,0.0002998,70.0011,342.1771,271.3449,88.7367,7.284e-06,-6e-08,0.0,0 STARLINK-3101,1 49168U 21082AQ  24058.92424095 -.00000006  00000-0  72840-5 0  9998,2 49168  70.0011 342.1771 0002998 271.3449  88.7367 14.98327646136719,6950.2,96.107,574.149,569.982,0.0
49168.0,STARLINK-3101,PAYLOAD,2024-02-28 02:59:18,14.98336483,0.0003095,70.0009,341.6711,272.1578,87.9226,2.3177e-05,1.84e-06,0.0,0 STARLINK-3101,1 49168U 21082AQ  24059.12451462  .00000184  00000-0  23177-4 0  9993,2 49168  70.0009 341.6711 0003095 272.1578  87.9226 14.98336483136742,6950.173,96.107,574.189,569.887,0.0
49168.0,STARLINK-3101,PAYLOAD,2024-02-28 12:36:06,14.9834316,0.0003003,70.001,340.6607,272.6934,87.3881,-0.00018041,-2.246e-05,0.0,0 STARLINK-3101,1 49168U 21082AQ  24059.52507342 -.00002246  00000-0 -18041-3 0  9992,2 49168  70.0010 340.6607 0003003 272.6934  87.3881 14.98343160136805,6950.152,96.106,574.104,569.93,0.0
49168.0,STARLINK-3101,PAYLOAD,2024-02-28 19:00:39,14.98325458,0.0002828,70.0011,339.9875,271.7395,88.344,9.8251e-05,1.079e-05,0.0,0 STARLINK-3101,1 49168U 21082AQ  24059.79211940  .00001079  00000-0  98251-4 0  9990,2 49168  70.0011 339.9875 0002828 271.7395  88.3440 14.98325458136845,6950.207,96.107,574.037,570.106,0.0
49168.0,STARLINK-3101,PAYLOAD,2024-02-28 22:12:55,14.98325171,0.0002845,70.0011,339.6509,271.7604,88.3229,9.0194e-05,9.83e-06,0.0,0 STARLINK-3101,1 49168U 21082AQ  24059.92564026  .00000983  00000-0  90194-4 0  9992,2 49168  70.0011 339.6509 0002845 271.7604  88.3229 14.98325171136867,6950.208,96.107,574.05,570.095,0.0
49168.0,STARLINK-3101,PAYLOAD,2024-02-29 04:37:27,14.98326634,0.0002794,70.0012,338.9776,270.0572,90.0267,0.00014645,1.655e-05,0.0,0 STARLINK-3101,1 49168U 21082AQ  24060.19267882  .00001655  00000-0  14645-3 0  9996,2 49168  70.0012 338.9776 0002794 270.0572  90.0267 14.98326634136907,6950.203,96.107,574.01,570.126,0.0
49168.0,STARLINK-3101,PAYLOAD,2024-02-29 19:02:39,14.98337241,0.0002652,70.0014,337.4625,273.5008,86.5848,-5.0975e-05,-7.01e-06,0.0,0 STARLINK-3101,1 49168U 21082AQ  24060.79351765 -.00000701  00000-0 -50975-4 0  9996,2 49168  70.0014 337.4625 0002652 273.5008  86.5848 14.98337241136991,6950.17,96.107,573.879,570.192,0.0
49168.0,STARLINK-3101,PAYLOAD,2024-02-29 22:14:56,14.98331169,0.0002764,70.0014,337.1257,271.6768,88.4074,4.5808e-05,4.54e-06,0.0,0 STARLINK-3101,1 49168U 21082AQ  24060.92703861  .00000454  00000-0  45808-4 0  9991,2 49168  70.0014 337.1257 0002764 271.6768  88.4074 14.98331169137014,6950.189,96.107,573.975,570.133,0.0
49168.0,STARLINK-3101,PAYLOAD,2024-03-01 11:04:00,14.98336146,0.0002612,70.0014,335.779,273.6875,86.3985,-2.2056e-05,-3.56e-06,0.0,0 STARLINK-3101,1 49168U 21082AQ  24061.46111589 -.00000356  00000-0 -22056-4 0  9994,2 49168  70.0014 335.7790 0002612 273.6875  86.3985 14.98336146137099,6950.174,96.107,573.854,570.223,0.0
49168.0,STARLINK-3101,PAYLOAD,2024-03-01 19:04:40,14.98332778,0.0002639,70.0015,334.9373,271.6237,88.462,6.1683e-05,6.43e-06,0.0,0 STARLINK-3101,1 49168U 21082AQ  24061.79491509  .00000643  00000-0  61683-4 0  9999,2 49168  70.0015 334.9373 0002639 271.6237  88.4620 14.98332778137149,6950.184,96.107,573.883,570.215,0.0
49168.0,STARLINK-3101,PAYLOAD,2024-03-01 22:16:56,14.98331528,0.0002696,70.0014,334.6009,270.1086,89.9764,6.7019e-05,7.07e-06,0.0,0 STARLINK-3101,1 49168U 21082AQ  24061.92843535  .00000707  00000-0  67019-4 0  9994,2 49168  70.0014 334.6009 0002696 270.1086  89.9764 14.98331528137169,6950.188,96.107,573.927,570.179,0.0
49168.0,STARLINK-3101,PAYLOAD,2024-03-02 03:05:20,14.98334155,0.0002462,70.0014,334.0961,265.0726,95.0152,0.00011228,1.247e-05,0.0,0 STARLINK-3101,1 49168U 21082AQ  24062.12871216  .00001247  00000-0  11228-3 0  9994,2 49168  70.0014 334.0961 0002462 265.0726  95.0152 14.98334155137196,6950.18,96.107,573.756,570.334,0.0
49168.0,STARLINK-3101,PAYLOAD,2024-03-02 20:42:49,14.98316641,0.0002661,70.0013,332.2443,266.1233,93.9622,0.00029223,3.394e-05,0.0,0 STARLINK-3101,1 49168U 21082AQ  24062.86307528  .00003394  00000-0  29223-3 0  9994,2 49168  70.0013 332.2443 0002661 266.1233  93.9622 14.98316641137308,6950.234,96.108,573.949,570.25,0.0
49168.0,STARLINK-3101,PAYLOAD,2024-03-02 22:18:57,14.98329905,0.000254,70.0015,332.0763,265.8278,94.259,4.0168e-05,3.86e-06,0.0,0 STARLINK-3101,1 49168U 21082AQ  24062.92983451  .00000386  00000-0  40168-4 0  9996,2 49168  70.0015 332.0763 0002540 265.8278  94.2590 14.98329905137310,6950.193,96.107,573.824,570.293,0.0
49168.0,STARLINK-3101,PAYLOAD,2024-03-03 04:43:30,14.9832414,0.0002665,70.0015,331.4041,253.5469,106.5398,0.00012434,1.391e-05,0.0,0 STARLINK-3101,1 49168U 21082AQ  24063.19687593  .00001391  00000-0  12434-3 0  9995,2 49168  70.0015 331.4041 0002665 253.5469 106.5398 14.98324140137359,6950.211,96.107,573.928,570.224,0.0
49168.0,STARLINK-3101,PAYLOAD,2024-03-03 20:44:51,14.98308444,0.0002585,70.0014,329.7209,253.4789,106.6086,0.00033202,3.869e-05,0.0,0 STARLINK-3101,1 49168U 21082AQ  24063.86448131  .00003869  00000-0  33202-3 0  9990,2 49168  70.0014 329.7209 0002585 253.4789 106.6086 14.98308444137454,6950.26,96.108,573.921,570.328,0.0
49168.0,STARLINK-3101,PAYLOAD,2024-03-04 03:09:22,14.98333827,0.0002629,70.0011,329.0483,249.9534,110.1342,-3.4411e-06,-1.34e-06,0.0,0 STARLINK-3101,1 49168U 21082AQ  24064.13151169 -.00000134  00000-0 -34411-5 0  9992,2 49168  70.0011 329.0483 0002629 249.9534 110.1342 14.98333827137497,6950.181,96.107,573.873,570.219,0.0
49168.0,STARLINK-3101,PAYLOAD,2024-03-04 11:10:02,14.98335113,0.000246,70.0015,328.2047,261.8616,98.2264,4.7467e-05,4.74e-06,0.0,0 STARLINK-3101,1 49168U 21082AQ  24064.46530945  .00000474  00000-0  47467-4 0  9990,2 49168  70.0015 328.2047 0002460 261.8616  98.2264 14.98335113137540,6950.177,96.107,573.752,570.332,0.0
49168.0,STARLINK-3101,PAYLOAD,2024-03-04 22:22:59,14.98331097,0.0002844,70.0006,327.0254,266.4804,93.603,4.5524e-05,4.5e-06,0.0,0 STARLINK-3101,1 49168U 21082AQ  24064.93263004  .00000450  00000-0  45524-4 0  9997,2 49168  70.0006 327.0254 0002844 266.4804  93.6030 14.98331097137618,6950.189,96.107,574.031,570.078,0.0
49168.0,STARLINK-3101,PAYLOAD,2024-03-05 03:11:23,14.98333987,0.0002788,70.0007,326.5209,266.3979,93.6861,7.8744e-05,8.47e-06,0.0,0 STARLINK-3101,1 49168U 21082AQ  24065.13290704  .00000847  00000-0  78744-4 0  9997,2 49168  70.0007 326.5209 0002788 266.3979  93.6861 14.98333987137647,6950.181,96.107,573.983,570.108,0.0
49168.0,STARLINK-3101,PAYLOAD,2024-03-05 20:48:52,14.98320513,0.0002819,70.001,324.6696,269.7858,90.2978,1.433e-06,-7.6e-07,0.0,0 STARLINK-3101,1 49168U 21082AQ  24065.86727912 -.00000076  00000-0  14330-5 0  9990,2 49168  70.0010 324.6696 0002819 269.7858  90.2978 14.98320513137753,6950.222,96.108,574.046,570.128,0.0
49168.0,STARLINK-3101,PAYLOAD,2024-03-06 03:13:24,14.98329141,0.0002576,70.0008,323.9966,263.0133,97.0733,-2.3666e-06,-1.21e-06,0.0,0 STARLINK-3101,1 49168U 21082AQ  24066.13431460 -.00000121  00000-0 -23666-5 0  9995,2 49168  70.0008 323.9966 0002576 263.0133  97.0733 14.98329141137799,6950.196,96.107,573.851,570.27,0.0
49168.0,STARLINK-3101,PAYLOAD,2024-03-07 03:15:25,14.98328612,0.0002504,70.0007,321.4726,265.2558,94.8315,4.9265e-05,4.95e-06,0.0,0 STARLINK-3101,1 49168U 21082AQ  24067.13571382  .00000495  00000-0  49265-4 0  9998,2 49168  70.0007 321.4726 0002504 265.2558  94.8315 14.98328612137941,6950.197,96.107,573.803,570.322,0.0
49168.0,STARLINK-3101,PAYLOAD,2024-03-07 14:28:22,14.98326073,0.0002839,69.9998,320.2941,270.9532,89.1301,2.8737e-05,2.5e-06,0.0,0 STARLINK-3101,1 49168U 21082AQ  24067.60303560  .00000250  00000-0  28737-4 0  9991,2 49168  69.9998 320.2941 0002839 270.9532  89.1301 14.98326073138019,6950.205,96.107,574.043,570.097,0.0
49168.0,STARLINK-3101,PAYLOAD,2024-03-08 09:41:59,14.98317752,0.0002449,69.9999,318.2729,278.2324,81.8558,0.00024221,2.797e-05,0.0,0 STARLINK-3101,1 49168U 21082AQ  24068.40415860  .00002797  00000-0  24221-3 0  9998,2 49168  69.9999 318.2729 0002449 278.2324  81.8558 14.98317752138138,6950.231,96.108,573.798,570.394,0.0
49168.0,STARLINK-3101,PAYLOAD,2024-03-09 01:43:19,14.98325141,0.0002576,70.0003,316.5901,275.623,84.4635,6.2555e-05,6.53e-06,0.0,0 STARLINK-3101,1 49168U 21082AQ  24069.07175805  .00000653  00000-0  62555-4 0  9996,2 49168  70.0003 316.5901 0002576 275.6230  84.4635 14.98325141138235,6950.208,96.107,573.863,570.283,0.0
49168.0,STARLINK-3101,PAYLOAD,2024-03-09 16:08:32,14.98327853,0.000271,70.0,315.0761,267.3886,92.6963,0.00011352,1.262e-05,0.0,0 STARLINK-3101,1 49168U 21082AQ  24069.67259372  .00001262  00000-0  11352-3 0  9999,2 49168  70.0000 315.0761 0002710 267.3886  92.6963 14.98327853138322,6950.2,96.107,573.948,570.181,0.0
49168.0,STARLINK-3101,PAYLOAD,2024-03-09 22:33:04,14.98331117,0.0002463,69.9999,314.4015,257.4096,102.6788,6.3176e-05,6.61e-06,0.0,0 STARLINK-3101,1 49168U 21082AQ  24069.93963256  .00000661  00000-0  63176-4 0  9995,2 49168  69.9999 314.4015 0002463 257.4096 102.6788 14.98331117138368,6950.189,96.107,573.766,570.343,0.0
